{"type": "FeatureCollection", "features": [ {"type": "Feature", "properties": {"norad_id": 33825, "name": "COSMOS 2251 DEB", "group": "cosmos-2251-debris", "lat": 72.63631628282086, "lon": 148.54855139393683, "alt_km": 657.7679021291333, "timestamp": "2025-12-08T21:31:05.059150+00:00", "meta": {"OBJECT_NAME": "COSMOS 2251 DEB", "OBJECT_ID": "1993-036BS", "EPOCH": "2025-12-08T13:29:10.217184", "MEAN_MOTION": 14.69708612, "ECCENTRICITY": 0.00843296, "INCLINATION": 73.9851, "RA_OF_ASC_NODE": 35.9146, "ARG_OF_PERICENTER": 3.9987, "MEAN_ANOMALY": 121.8448, "EPHEMERIS_TYPE": 0, "CLASSIFICATION_TYPE": "U", "NORAD_CAT_ID": 33825, "ELEMENT_SET_NO": 999, "REV_AT_EPOCH": 88818, "BSTAR": 0.0011359174, "MEAN_MOTION_DOT": 7.121e-05, "MEAN_MOTION_DDOT": 0}, "tle": {"line1": "1 33825U 93036BS  25342.56192381  .00007121  00000+0  11359-2 0  9994", "line2": "2 33825  73.9851  35.9146 0084329   3.9987 121.8448 14.69708612888181"}}, "geometry": {"type": "Point", "coordinates": [148.54855139393683, 72.63631628282086]}}, {"type": "Feature", "properties": {"norad_id": 33826, "name": "COSMOS 2251 DEB", "group": "cosmos-2251-debris", "lat": -52.722659979351164, "lon": -100.8528439905409, "alt_km": 767.126203882076, "timestamp": "2025-12-08T21:31:05.059160+00:00", "meta": {"OBJECT_NAME": "COSMOS 2251 DEB", "OBJECT_ID": "1993-036BT", "EPOCH": "2025-12-08T16:01:24.643776", "MEAN_MOTION": 14.51664644, "ECCENTRICITY": 0.00836528, "INCLINATION": 74.065, "RA_OF_ASC_NODE": 57.5314, "ARG_OF_PERICENTER": 103.1899, "MEAN_ANOMALY": 15.9338, "EPHEMERIS_TYPE": 0, "CLASSIFICATION_TYPE": "U", "NORAD_CAT_ID": 33826, "ELEMENT_SET_NO": 999, "REV_AT_EPOCH": 87710, "BSTAR": 0.0017127163, "MEAN_MOTION_DOT": 7.169e-05, "MEAN_MOTION_DDOT": 0}, "tle": {"line1": "1 33826U 93036BT  25342.66764634  .00007169  00000+0  17127-2 0  9993", "line2": "2 33826  74.0650  57.5314 0083652 103.1899  15.9338 14.51664644877109"}}, "geometry": {"type": "Point", "coordinates": [-100.8528439905409, -52.722659979351164]}}, {"type": "Feature", "properties": {"norad_id": 33828, "name": "COSMOS 2251 DEB", "group": "cosmos-2251-debris", "lat": -50.38605537995728, "lon": 85.45470859858409, "alt_km": 749.1338910712993, "timestamp": "2025-12-08T21:31:05.059171+00:00", "meta": {"OBJECT_NAME": "COSMOS 2251 DEB", "OBJECT_ID": "1993-036BV", "EPOCH": "2025-12-08T11:17:39.842592", "MEAN_MOTION": 14.44312361, "ECCENTRICITY": 0.00294079, "INCLINATION": 74.0471, "RA_OF_ASC_NODE": 246.0284, "ARG_OF_PERICENTER": 319.5903, "MEAN_ANOMALY": 219.8909, "EPHEMERIS_TYPE": 0, "CLASSIFICATION_TYPE": "U", "NORAD_CAT_ID": 33828, "ELEMENT_SET_NO": 999, "REV_AT_EPOCH": 88251, "BSTAR": 0.00089040608, "MEAN_MOTION_DOT": 3.054e-05, "MEAN_MOTION_DDOT": 0}, "tle": {"line1": "1 33828U 93036BV  25342.47060003  .00003054  00000+0  89041-3 0  9997", "line2": "2 33828  74.0471 246.0284 0029407 319.5903 219.8909 14.44312361882518"}}, "geometry": {"type": "Point", "coordinates": [85.45470859858409, -50.38605537995728]}}, {"type": "Feature", "properties": {"norad_id": 33830, "name": "COSMOS 2251 DEB", "group": "cosmos-2251-debris", "lat": 18.037160562379846, "lon": -116.74940324093808, "alt_km": 611.5549952894307, "timestamp": "2025-12-08T21:31:05.059182+00:00", "meta": {"OBJECT_NAME": "COSMOS 2251 DEB", "OBJECT_ID": "1993-036BX", "EPOCH": "2025-12-08T10:51:33.629184", "MEAN_MOTION": 14.76814376, "ECCENTRICITY": 0.00422656, "INCLINATION": 74.0324, "RA_OF_ASC_NODE": 238.7709, "ARG_OF_PERICENTER": 359.7349, "MEAN_ANOMALY": 178.8296, "EPHEMERIS_TYPE": 0, "CLASSIFICATION_TYPE": "U", "NORAD_CAT_ID": 33830, "ELEMENT_SET_NO": 999, "REV_AT_EPOCH": 89408, "BSTAR": 0.0011804918, "MEAN_MOTION_DOT": 8.384e-05, "MEAN_MOTION_DDOT": 0}, "tle": {"line1": "1 33830U 93036BX  25342.45247256  .00008384  00000+0  11805-2 0  9998", "line2": "2 33830  74.0324 238.7709 0042265 359.7349 178.8296 14.76814376894081"}}, "geometry": {"type": "Point", "coordinates": [-116.74940324093808, 18.037160562379846]}}, {"type": "Feature", "properties": {"norad_id": 33832, "name": "COSMOS 2251 DEB", "group": "cosmos-2251-debris", "lat": -61.66318142732849, "lon": -174.71104282851437, "alt_km": 685.4218414795741, "timestamp": "2025-12-08T21:31:05.059192+00:00", "meta": {"OBJECT_NAME": "COSMOS 2251 DEB", "OBJECT_ID": "1993-036BZ", "EPOCH": "2025-12-08T02:48:05.865984", "MEAN_MOTION": 14.6055874, "ECCENTRICITY": 0.00252482, "INCLINATION": 74.0537, "RA_OF_ASC_NODE": 218.7948, "ARG_OF_PERICENTER": 250.8501, "MEAN_ANOMALY": 263.9312, "EPHEMERIS_TYPE": 0, "CLASSIFICATION_TYPE": "U", "NORAD_CAT_ID": 33832, "ELEMENT_SET_NO": 999, "REV_AT_EPOCH": 88357, "BSTAR": 0.0016659264, "MEAN_MOTION_DOT": 8.109e-05, "MEAN_MOTION_DDOT": 0}, "tle": {"line1": "1 33832U 93036BZ  25342.11673456  .00008109  00000+0  16659-2 0  9995", "line2": "2 33832  74.0537 218.7948 0025248 250.8501 263.9312 14.60558740883575"}}, "geometry": {"type": "Point", "coordinates": [-174.71104282851437, -61.66318142732849]}}, {"type": "Feature", "properties": {"norad_id": 33835, "name": "COSMOS 2251 DEB", "group": "cosmos-2251-debris", "lat": 67.47742490187959, "lon": -115.11639124421362, "alt_km": 657.8786287848543, "timestamp": "2025-12-08T21:31:05.059205+00:00", "meta": {"OBJECT_NAME": "COSMOS 2251 DEB", "OBJECT_ID": "1993-036CC", "EPOCH": "2025-12-08T11:32:54.123072", "MEAN_MOTION": 14.62174483, "ECCENTRICITY": 0.00551121, "INCLINATION": 74.0577, "RA_OF_ASC_NODE": 109.2542, "ARG_OF_PERICENTER": 164.0137, "MEAN_ANOMALY": 276.877, "EPHEMERIS_TYPE": 0, "CLASSIFICATION_TYPE": "U", "NORAD_CAT_ID": 33835, "ELEMENT_SET_NO": 999, "REV_AT_EPOCH": 88727, "BSTAR": 0.0015489905, "MEAN_MOTION_DOT": 7.947e-05, "MEAN_MOTION_DDOT": 0}, "tle": {"line1": "1 33835U 93036CC  25342.48118198  .00007947  00000+0  15490-2 0  9996", "line2": "2 33835  74.0577 109.2542 0055112 164.0137 276.8770 14.62174483887272"}}, "geometry": {"type": "Point", "coordinates": [-115.11639124421362, 67.47742490187959]}}, {"type": "Feature", "properties": {"norad_id": 33836, "name": "COSMOS 2251 DEB", "group": "cosmos-2251-debris", "lat": -65.20495524455185, "lon": 124.9397970909758, "alt_km": 647.7828298988561, "timestamp": "2025-12-08T21:31:05.059217+00:00", "meta": {"OBJECT_NAME": "COSMOS 2251 DEB", "OBJECT_ID": "1993-036CD", "EPOCH": "2025-12-08T13:02:59.816832", "MEAN_MOTION": 14.79492354, "ECCENTRICITY": 0.00224822, "INCLINATION": 73.9975, "RA_OF_ASC_NODE": 267.2292, "ARG_OF_PERICENTER": 122.0023, "MEAN_ANOMALY": 50.0706, "EPHEMERIS_TYPE": 0, "CLASSIFICATION_TYPE": "U", "NORAD_CAT_ID": 33836, "ELEMENT_SET_NO": 999, "REV_AT_EPOCH": 64026, "BSTAR": 0.0017795411, "MEAN_MOTION_DOT": 0.00013352, "MEAN_MOTION_DDOT": 0}, "tle": {"line1": "1 33836U 93036CD  25342.54374788  .00013352  00000+0  17795-2 0  9990", "line2": "2 33836  73.9975 267.2292 0022482 122.0023  50.0706 14.79492354640267"}}, "geometry": {"type": "Point", "coordinates": [124.9397970909758, -65.20495524455185]}}, {"type": "Feature", "properties": {"norad_id": 33837, "name": "COSMOS 2251 DEB", "group": "cosmos-2251-debris", "lat": -73.92584919306144, "lon": -32.94177302179134, "alt_km": 706.0006715760155, "timestamp": "2025-12-08T21:31:05.059228+00:00", "meta": {"OBJECT_NAME": "COSMOS 2251 DEB", "OBJECT_ID": "1993-036CE", "EPOCH": "2025-12-08T13:39:43.464384", "MEAN_MOTION": 14.5068869, "ECCENTRICITY": 0.00358018, "INCLINATION": 74.0132, "RA_OF_ASC_NODE": 63.4496, "ARG_OF_PERICENTER": 285.8561, "MEAN_ANOMALY": 73.8654, "EPHEMERIS_TYPE": 0, "CLASSIFICATION_TYPE": "U", "NORAD_CAT_ID": 33837, "ELEMENT_SET_NO": 999, "REV_AT_EPOCH": 88735, "BSTAR": 0.00052826218, "MEAN_MOTION_DOT": 2.065e-05, "MEAN_MOTION_DDOT": 0}, "tle": {"line1": "1 33837U 93036CE  25342.56925306  .00002065  00000+0  52826-3 0  9995", "line2": "2 33837  74.0132  63.4496 0035801 285.8561  73.8654 14.50688690887358"}}, "geometry": {"type": "Point", "coordinates": [-32.94177302179134, -73.92584919306144]}}, {"type": "Feature", "properties": {"norad_id": 33838, "name": "COSMOS 2251 DEB", "group": "cosmos-2251-debris", "lat": 6.527465875118849, "lon": -24.86611933957364, "alt_km": 738.2141682920083, "timestamp": "2025-12-08T21:31:05.059239+00:00", "meta": {"OBJECT_NAME": "COSMOS 2251 DEB", "OBJECT_ID": "1993-036CF", "EPOCH": "2025-12-08T14:27:02.711808", "MEAN_MOTION": 14.48344866, "ECCENTRICITY": 0.00274462, "INCLINATION": 74.0361, "RA_OF_ASC_NODE": 157.5621, "ARG_OF_PERICENTER": 280.0083, "MEAN_ANOMALY": 158.6257, "EPHEMERIS_TYPE": 0, "CLASSIFICATION_TYPE": "U", "NORAD_CAT_ID": 33838, "ELEMENT_SET_NO": 999, "REV_AT_EPOCH": 88509, "BSTAR": 0.00072297893, "MEAN_MOTION_DOT": 2.69e-05, "MEAN_MOTION_DDOT": 0}, "tle": {"line1": "1 33838U 93036CF  25342.60211472  .00002690  00000+0  72298-3 0  9992", "line2": "2 33838  74.0361 157.5621 0027446 280.0083 158.6257 14.48344866885091"}}, "geometry": {"type": "Point", "coordinates": [-24.86611933957364, 6.527465875118849]}}, {"type": "Feature", "properties": {"norad_id": 33839, "name": "COSMOS 2251 DEB", "group": "cosmos-2251-debris", "lat": -53.742876323527284, "lon": 56.83293151401929, "alt_km": 685.028571675427, "timestamp": "2025-12-08T21:31:05.059249+00:00", "meta": {"OBJECT_NAME": "COSMOS 2251 DEB", "OBJECT_ID": "1993-036CG", "EPOCH": "2025-12-08T15:37:06.140928", "MEAN_MOTION": 14.64404546, "ECCENTRICITY": 0.00849849, "INCLINATION": 74.0391, "RA_OF_ASC_NODE": 214.3368, "ARG_OF_PERICENTER": 327.3782, "MEAN_ANOMALY": 55.137, "EPHEMERIS_TYPE": 0, "CLASSIFICATION_TYPE": "U", "NORAD_CAT_ID": 33839, "ELEMENT_SET_NO": 999, "REV_AT_EPOCH": 89520, "BSTAR": 0.0004541285, "MEAN_MOTION_DOT": 2.499e-05, "MEAN_MOTION_DDOT": 0}, "tle": {"line1": "1 33839U 93036CG  25342.65076552  .00002499  00000+0  45413-3 0  9992", "line2": "2 33839  74.0391 214.3368 0084984 327.3782  55.1370 14.64404546895207"}}, "geometry": {"type": "Point", "coordinates": [56.83293151401929, -53.742876323527284]}}]}